IRIDIUM 63              
1 25286U 98021B   26013.94269303  .00000320  00000+0  10183-3 0  9991
2 25286  86.3996 353.6988 0002046  83.1206 277.0224 14.36766886454103
IRIDIUM 69              
1 25319U 98026A   26014.20779068  .00000285  00000+0  82041-4 0  9990
2 25319  86.3978   6.2081 0004326  66.9175 293.2480 14.41248892453451
IRIDIUM 71              
1 25320U 98026B   26013.70643193  .00000253  00000+0  71899-4 0  9999
2 25320  86.3981   1.0910 0004207 100.6240 259.5434 14.41341519453913
IRIDIUM 73              
1 25344U 98032C   26013.82390114  .00000477  00000+0  11304-3 0  9999
2 25344  86.4434 317.3560 0002449  69.7717 290.3752 14.52042195461125
IRIDIUM 82              
1 25467U 98051A   26013.70867808  .00032239  00000+0  54149-3 0  9997
2 25467  86.3596   4.9710 0056173 204.4714 155.3878 15.49794774456344
